[{"OBJECT_NAME":"STARLINK-4751","OBJECT_ID":"2022-114H","EPOCH":"2026-03-09T21:59:58.479648","MEAN_MOTION":15.08834432,"ECCENTRICITY":0.00012477,"INCLINATION":53.2165,"RA_OF_ASC_NODE":303.2516,"ARG_OF_PERICENTER":103.5502,"MEAN_ANOMALY":256.563,"EPHEMERIS_TYPE":0,"CLASSIFICATION_TYPE":"U","NORAD_CAT_ID":53825,"ELEMENT_SET_NO":999,"REV_AT_EPOCH":19286,"BSTAR":-0.00015999485,"MEAN_MOTION_DOT":-2.833e-5,"MEAN_MOTION_DDOT":0},{"OBJECT_NAME":"RAISE-4","OBJECT_ID":"2025-297B","EPOCH":"2026-03-09T23:25:57.718272","MEAN_MOTION":15.08174958,"ECCENTRICITY":0.00127133,"INCLINATION":97.4953,"RA_OF_ASC_NODE":219.2703,"ARG_OF_PERICENTER":22.7159,"MEAN_ANOMALY":337.4629,"EPHEMERIS_TYPE":0,"CLASSIFICATION_TYPE":"U","NORAD_CAT_ID":67073,"ELEMENT_SET_NO":999,"REV_AT_EPOCH":1293,"BSTAR":0.00037087145,"MEAN_MOTION_DOT":5.682e-5,"MEAN_MOTION_DDOT":0}]
