STARLINK-4751           
1 53825U 22114H   26068.91664906 -.00002833  00000+0 -15999-3 0  9999
2 53825  53.2165 303.2516 0001248 103.5502 256.5630 15.08834432192869
RAISE-4                 
1 67073U 25297B   26068.97636248  .00005682  00000+0  37087-3 0  9993
2 67073  97.4953 219.2703 0012713  22.7159 337.4629 15.08174958 12933
